[{"OBJECT_NAME":"DUPLEX","OBJECT_ID":"1998-067XS","EPOCH":"2026-03-21T21:53:52.523808","MEAN_MOTION":15.5696822,"ECCENTRICITY":0.0003093,"INCLINATION":51.6306,"RA_OF_ASC_NODE":8.2783,"ARG_OF_PERICENTER":164.9627,"MEAN_ANOMALY":195.1457,"EPHEMERIS_TYPE":0,"CLASSIFICATION_TYPE":"U","NORAD_CAT_ID":66906,"ELEMENT_SET_NO":999,"REV_AT_EPOCH":1703,"BSTAR":0.00046990366,"MEAN_MOTION_DOT":0.00034198,"MEAN_MOTION_DDOT":0},{"OBJECT_NAME":"ISS OBJECT XT","OBJECT_ID":"1998-067XT","EPOCH":"2026-03-21T19:03:10.879488","MEAN_MOTION":15.73355996,"ECCENTRICITY":0.00052981,"INCLINATION":51.6255,"RA_OF_ASC_NODE":3.7105,"ARG_OF_PERICENTER":157.6847,"MEAN_ANOMALY":202.4384,"EPHEMERIS_TYPE":0,"CLASSIFICATION_TYPE":"U","NORAD_CAT_ID":66907,"ELEMENT_SET_NO":999,"REV_AT_EPOCH":1708,"BSTAR":0.0015658019,"MEAN_MOTION_DOT":0.00227192,"MEAN_MOTION_DDOT":0},{"OBJECT_NAME":"ISS OBJECT XU","OBJECT_ID":"1998-067XU","EPOCH":"2026-03-21T18:59:03.372864","MEAN_MOTION":15.73514339,"ECCENTRICITY":0.00054878,"INCLINATION":51.625,"RA_OF_ASC_NODE":3.6874,"ARG_OF_PERICENTER":157.2895,"MEAN_ANOMALY":202.8347,"EPHEMERIS_TYPE":0,"CLASSIFICATION_TYPE":"U","NORAD_CAT_ID":66908,"ELEMENT_SET_NO":999,"REV_AT_EPOCH":1708,"BSTAR":0.0015826321,"MEAN_MOTION_DOT":0.00231332,"MEAN_MOTION_DDOT":0},{"OBJECT_NAME":"SILVERSAT","OBJECT_ID":"1998-067XV","EPOCH":"2026-03-21T18:22:28.899264","MEAN_MOTION":15.77625461,"ECCENTRICITY":0.00060286,"INCLINATION":51.6233,"RA_OF_ASC_NODE":2.7602,"ARG_OF_PERICENTER":161.922,"MEAN_ANOMALY":198.1996,"EPHEMERIS_TYPE":0,"CLASSIFICATION_TYPE":"U","NORAD_CAT_ID":66909,"ELEMENT_SET_NO":999,"REV_AT_EPOCH":1709,"BSTAR":0.0018725789,"MEAN_MOTION_DOT":0.00331784,"MEAN_MOTION_DDOT":0},{"OBJECT_NAME":"ISS OBJECT XW","OBJECT_ID":"1998-067XW","EPOCH":"2026-03-21T19:05:20.266080","MEAN_MOTION":15.72275809,"ECCENTRICITY":0.00057948,"INCLINATION":51.6252,"RA_OF_ASC_NODE":3.7127,"ARG_OF_PERICENTER":158.4228,"MEAN_ANOMALY":201.7016,"EPHEMERIS_TYPE":0,"CLASSIFICATION_TYPE":"U","NORAD_CAT_ID":66910,"ELEMENT_SET_NO":999,"REV_AT_EPOCH":1708,"BSTAR":0.0014497158,"MEAN_MOTION_DOT":0.00200201,"MEAN_MOTION_DDOT":0},{"OBJECT_NAME":"ISS OBJECT XX","OBJECT_ID":"1998-067XX","EPOCH":"2026-03-21T19:05:44.145312","MEAN_MOTION":15.82512156,"ECCENTRICITY":0.00075961,"INCLINATION":51.6202,"RA_OF_ASC_NODE":1.4317,"ARG_OF_PERICENTER":165.5607,"MEAN_ANOMALY":194.5614,"EPHEMERIS_TYPE":0,"CLASSIFICATION_TYPE":"U","NORAD_CAT_ID":66911,"ELEMENT_SET_NO":999,"REV_AT_EPOCH":1710,"BSTAR":0.002054154,"MEAN_MOTION_DOT":0.0046225,"MEAN_MOTION_DDOT":0},{"OBJECT_NAME":"ISS OBJECT XY","OBJECT_ID":"1998-067XY","EPOCH":"2026-03-21T12:34:04.346688","MEAN_MOTION":15.6595471,"ECCENTRICITY":0.0003878,"INCLINATION":51.6282,"RA_OF_ASC_NODE":7.1735,"ARG_OF_PERICENTER":158.9718,"MEAN_ANOMALY":201.1438,"EPHEMERIS_TYPE":0,"CLASSIFICATION_TYPE":"U","NORAD_CAT_ID":66912,"ELEMENT_SET_NO":999,"REV_AT_EPOCH":1700,"BSTAR":0.0012251516,"MEAN_MOTION_DOT":0.00129023,"MEAN_MOTION_DDOT":0},{"OBJECT_NAME":"KNACKSAT-2","OBJECT_ID":"1998-067XZ","EPOCH":"2026-03-21T19:55:46.026912","MEAN_MOTION":15.52793496,"ECCENTRICITY":0.0009777,"INCLINATION":51.6322,"RA_OF_ASC_NODE":11.4797,"ARG_OF_PERICENTER":229.0674,"MEAN_ANOMALY":130.947,"EPHEMERIS_TYPE":0,"CLASSIFICATION_TYPE":"U","NORAD_CAT_ID":67683,"ELEMENT_SET_NO":999,"REV_AT_EPOCH":667,"BSTAR":0.0007844628,"MEAN_MOTION_DOT":0.00049396,"MEAN_MOTION_DDOT":0},{"OBJECT_NAME":"CORAL","OBJECT_ID":"1998-067YA","EPOCH":"2026-03-21T12:32:57.858432","MEAN_MOTION":15.56214538,"ECCENTRICITY":0.00120744,"INCLINATION":51.6312,"RA_OF_ASC_NODE":12.4272,"ARG_OF_PERICENTER":217.4243,"MEAN_ANOMALY":142.5908,"EPHEMERIS_TYPE":0,"CLASSIFICATION_TYPE":"U","NORAD_CAT_ID":67684,"ELEMENT_SET_NO":999,"REV_AT_EPOCH":663,"BSTAR":0.0014993478,"MEAN_MOTION_DOT":0.00108459,"MEAN_MOTION_DDOT":0},{"OBJECT_NAME":"GXIBA-1","OBJECT_ID":"1998-067YB","EPOCH":"2026-03-21T19:44:40.227648","MEAN_MOTION":15.53267363,"ECCENTRICITY":0.00116709,"INCLINATION":51.6328,"RA_OF_ASC_NODE":11.4283,"ARG_OF_PERICENTER":226.2975,"MEAN_ANOMALY":133.7049,"EPHEMERIS_TYPE":0,"CLASSIFICATION_TYPE":"U","NORAD_CAT_ID":67685,"ELEMENT_SET_NO":999,"REV_AT_EPOCH":667,"BSTAR":0.00089955196,"MEAN_MOTION_DOT":0.00057809,"MEAN_MOTION_DDOT":0},{"OBJECT_NAME":"UITMSAT-2","OBJECT_ID":"1998-067YC","EPOCH":"2026-03-20T04:54:06.523488","MEAN_MOTION":15.53839493,"ECCENTRICITY":0.00085039,"INCLINATION":51.6331,"RA_OF_ASC_NODE":19.3725,"ARG_OF_PERICENTER":189.8163,"MEAN_ANOMALY":170.2663,"EPHEMERIS_TYPE":0,"CLASSIFICATION_TYPE":"U","NORAD_CAT_ID":67686,"ELEMENT_SET_NO":999,"REV_AT_EPOCH":642,"BSTAR":0.00056833207,"MEAN_MOTION_DOT":0.00036971,"MEAN_MOTION_DDOT":0},{"OBJECT_NAME":"HMU-SAT2","OBJECT_ID":"1998-067YD","EPOCH":"2026-03-21T19:50:08.885472","MEAN_MOTION":15.53024657,"ECCENTRICITY":0.00083032,"INCLINATION":51.6325,"RA_OF_ASC_NODE":11.4561,"ARG_OF_PERICENTER":199.098,"MEAN_ANOMALY":160.97,"EPHEMERIS_TYPE":0,"CLASSIFICATION_TYPE":"U","NORAD_CAT_ID":67687,"ELEMENT_SET_NO":999,"REV_AT_EPOCH":659,"BSTAR":0.00089098671,"MEAN_MOTION_DOT":0.00056664,"MEAN_MOTION_DDOT":0},{"OBJECT_NAME":"LEOPARD","OBJECT_ID":"1998-067YE","EPOCH":"2026-03-21T02:37:26.409216","MEAN_MOTION":15.5358032,"ECCENTRICITY":0.00084068,"INCLINATION":51.633,"RA_OF_ASC_NODE":14.9166,"ARG_OF_PERICENTER":194.0087,"MEAN_ANOMALY":166.0671,"EPHEMERIS_TYPE":0,"CLASSIFICATION_TYPE":"U","NORAD_CAT_ID":67688,"ELEMENT_SET_NO":999,"REV_AT_EPOCH":648,"BSTAR":0.00078511675,"MEAN_MOTION_DOT":0.00050861,"MEAN_MOTION_DDOT":0},{"OBJECT_NAME":"CREW DRAGON 12","OBJECT_ID":"2026-031A","EPOCH":"2026-03-21T20:09:59.782464","MEAN_MOTION":15.4843394,"ECCENTRICITY":0.0006175,"INCLINATION":51.6343,"RA_OF_ASC_NODE":12.2942,"ARG_OF_PERICENTER":217.6861,"MEAN_ANOMALY":142.3695,"EPHEMERIS_TYPE":0,"CLASSIFICATION_TYPE":"U","NORAD_CAT_ID":67796,"ELEMENT_SET_NO":999,"REV_AT_EPOCH":55813,"BSTAR":0.0002872614,"MEAN_MOTION_DOT":0.00015105,"MEAN_MOTION_DDOT":0}]
